[{"OBJECT_NAME":"STARLINK-4452","OBJECT_ID":"2022-105L","EPOCH":"2026-03-09T15:08:11.408640","MEAN_MOTION":15.05649839,"ECCENTRICITY":0.0002377,"INCLINATION":97.603,"RA_OF_ASC_NODE":311.2055,"ARG_OF_PERICENTER":93.3957,"MEAN_ANOMALY":266.7541,"EPHEMERIS_TYPE":0,"CLASSIFICATION_TYPE":"U","NORAD_CAT_ID":53658,"ELEMENT_SET_NO":999,"REV_AT_EPOCH":19329,"BSTAR":2.8692e-5,"MEAN_MOTION_DOT":3.53e-6,"MEAN_MOTION_DDOT":0},{"OBJECT_NAME":"RAPIDEYE 2","OBJECT_ID":"2008-040A","EPOCH":"2026-03-09T16:28:01.823808","MEAN_MOTION":15.04945954,"ECCENTRICITY":0.00177122,"INCLINATION":97.4373,"RA_OF_ASC_NODE":102.2221,"ARG_OF_PERICENTER":194.2548,"MEAN_ANOMALY":165.8182,"EPHEMERIS_TYPE":0,"CLASSIFICATION_TYPE":"U","NORAD_CAT_ID":33312,"ELEMENT_SET_NO":999,"REV_AT_EPOCH":95100,"BSTAR":0.0001818221,"MEAN_MOTION_DOT":2.525e-5,"MEAN_MOTION_DDOT":0}]
